[{"OBJECT_NAME":"STARLINK-3691","OBJECT_ID":"2022-025E","EPOCH":"2026-03-10T00:00:02.999808","MEAN_MOTION":15.13329414,"ECCENTRICITY":0.00019663,"INCLINATION":53.0821,"RA_OF_ASC_NODE":34.3258,"ARG_OF_PERICENTER":59.5345,"MEAN_ANOMALY":23.2018,"EPHEMERIS_TYPE":0,"CLASSIFICATION_TYPE":"U","NORAD_CAT_ID":51960,"ELEMENT_SET_NO":999,"REV_AT_EPOCH":579,"BSTAR":0.0028647204,"MEAN_MOTION_DOT":0.00051709,"MEAN_MOTION_DDOT":0},{"OBJECT_NAME":"CZ-6A DEB","OBJECT_ID":"2022-151BX","EPOCH":"2026-03-09T18:04:18.424992","MEAN_MOTION":15.16566225,"ECCENTRICITY":0.00404449,"INCLINATION":98.6231,"RA_OF_ASC_NODE":169.9483,"ARG_OF_PERICENTER":104.1368,"MEAN_ANOMALY":256.4361,"EPHEMERIS_TYPE":0,"CLASSIFICATION_TYPE":"U","NORAD_CAT_ID":54328,"ELEMENT_SET_NO":999,"REV_AT_EPOCH":10563,"BSTAR":0.0050960293,"MEAN_MOTION_DOT":0.00102794,"MEAN_MOTION_DDOT":0}]
